[{"OBJECT_NAME":"FLOCK 4H-20","OBJECT_ID":"2025-276BK","EPOCH":"2026-03-09T18:04:42.197952","MEAN_MOTION":15.1978993,"ECCENTRICITY":0.00014172,"INCLINATION":97.4281,"RA_OF_ASC_NODE":144.1685,"ARG_OF_PERICENTER":295.795,"MEAN_ANOMALY":64.3138,"EPHEMERIS_TYPE":0,"CLASSIFICATION_TYPE":"U","NORAD_CAT_ID":66723,"ELEMENT_SET_NO":999,"REV_AT_EPOCH":1458,"BSTAR":0.0004218455,"MEAN_MOTION_DOT":8.967e-5,"MEAN_MOTION_DDOT":0},{"OBJECT_NAME":"FENGYUN 1C DEB","OBJECT_ID":"1999-025BYB","EPOCH":"2026-03-09T05:05:13.521120","MEAN_MOTION":14.56393574,"ECCENTRICITY":0.02857078,"INCLINATION":98.2326,"RA_OF_ASC_NODE":339.505,"ARG_OF_PERICENTER":237.0918,"MEAN_ANOMALY":120.25,"EPHEMERIS_TYPE":0,"CLASSIFICATION_TYPE":"U","NORAD_CAT_ID":31536,"ELEMENT_SET_NO":999,"REV_AT_EPOCH":97515,"BSTAR":0.0011428862,"MEAN_MOTION_DOT":8.819e-5,"MEAN_MOTION_DDOT":0}]
